SAUDISAT 1C             
1 27607U 02058C   22283.55552510  .00002013  00000+0  29434-3 0  9992
2 27607  64.5552 309.6313 0081685 272.5378  86.6375 14.76305506 65360
SAUDISAT 2              
1 28371U 04025F   22284.40233296  .00000551  00000+0  13934-3 0  9992
2 28371  98.3914 241.4539 0026537 107.8220 252.5869 14.54617423970143
SAUDISAT 3              
1 31118U 07012B   22284.41373596  .00000546  00000+0  10040-3 0  9992
2 31118  97.9800 228.7136 0014974 181.4007 178.7160 14.69385814830183
PISAT                   
1 41784U 16059B   22284.05950453  .00001194  00000+0  23470-3 0  9997
2 41784  97.9043 322.8510 0032171 161.7600 198.4765 14.64038592322609
FLYING LAPTOP           
1 42831U 17042G   22283.89253240  .00002250  00000+0  22679-3 0  9999
2 42831  97.4097 131.5775 0013684 348.4707  11.6196 14.91999019285304
SALSAT                  
1 46495U 20068K   22283.80497140  .00005370  00000+0  38171-3 0  9991
2 46495  97.7371 225.2174 0014931 244.6415 115.3265 15.05021247111532
